O3B MPOWER F1           
1 54755U 22174A   24273.80791821 -.00000030  00000+0  00000+0 0  9998
2 54755   0.0532 345.7938 0006508 195.0107  40.9705  5.00113547 34074
